CCSDS_OMM_VERS = 2.0
CREATION_DATE  = 
ORIGINATOR     = 

OBJECT_NAME    = SILVERSAT
OBJECT_ID      = 1998-067XV
CENTER_NAME    = EARTH
REF_FRAME      = TEME
TIME_SYSTEM    = UTC
MEAN_ELEMENT_THEORY = SGP/SGP4

EPOCH          = 2026-02-02T13:19:40.575936
MEAN_MOTION    = 15.61451329
ECCENTRICITY   = .00029533
INCLINATION    = 51.6263
RA_OF_ASC_NODE = 243.2974
ARG_OF_PERICENTER = 182.8938
MEAN_ANOMALY   = 177.2039

EPHEMERIS_TYPE = 0
CLASSIFICATION_TYPE = U
NORAD_CAT_ID   = 66909
ELEMENT_SET_NO = 999
REV_AT_EPOCH   = 968
BSTAR          = .12632301E-2
MEAN_MOTION_DOT = .111112E-2
MEAN_MOTION_DDOT = 0

CCSDS_OMM_VERS = 2.0
CREATION_DATE  = 
ORIGINATOR     = 

OBJECT_NAME    = 1998-067XW
OBJECT_ID      = 1998-067XW
CENTER_NAME    = EARTH
REF_FRAME      = TEME
TIME_SYSTEM    = UTC
MEAN_ELEMENT_THEORY = SGP/SGP4

EPOCH          = 2026-02-02T13:34:34.700160
MEAN_MOTION    = 15.60316116
ECCENTRICITY   = .00012273
INCLINATION    = 51.6252
RA_OF_ASC_NODE = 243.3624
ARG_OF_PERICENTER = 174.1288
MEAN_ANOMALY   = 185.9720

EPHEMERIS_TYPE = 0
CLASSIFICATION_TYPE = U
NORAD_CAT_ID   = 66910
ELEMENT_SET_NO = 999
REV_AT_EPOCH   = 968
BSTAR          = .10533629E-2
MEAN_MOTION_DOT = .88334E-3
MEAN_MOTION_DDOT = 0

CCSDS_OMM_VERS = 2.0
CREATION_DATE  = 
ORIGINATOR     = 

OBJECT_NAME    = 1998-067XX
OBJECT_ID      = 1998-067XX
CENTER_NAME    = EARTH
REF_FRAME      = TEME
TIME_SYSTEM    = UTC
MEAN_ELEMENT_THEORY = SGP/SGP4

EPOCH          = 2026-02-01T22:54:17.749440
MEAN_MOTION    = 15.62370847
ECCENTRICITY   = .00023873
INCLINATION    = 51.6240
RA_OF_ASC_NODE = 246.0290
ARG_OF_PERICENTER = 201.7752
MEAN_ANOMALY   = 158.3140

EPHEMERIS_TYPE = 0
CLASSIFICATION_TYPE = U
NORAD_CAT_ID   = 66911
ELEMENT_SET_NO = 999
REV_AT_EPOCH   = 958
BSTAR          = .10157917E-2
MEAN_MOTION_DOT = .92278E-3
MEAN_MOTION_DDOT = 0

CCSDS_OMM_VERS = 2.0
CREATION_DATE  = 
ORIGINATOR     = 

OBJECT_NAME    = 1998-067XY
OBJECT_ID      = 1998-067XY
CENTER_NAME    = EARTH
REF_FRAME      = TEME
TIME_SYSTEM    = UTC
MEAN_ELEMENT_THEORY = SGP/SGP4

EPOCH          = 2026-02-01T23:25:44.553504
MEAN_MOTION    = 15.57686086
ECCENTRICITY   = .00021101
INCLINATION    = 51.6275
RA_OF_ASC_NODE = 246.9309
ARG_OF_PERICENTER = 133.5266
MEAN_ANOMALY   = 226.5902

EPHEMERIS_TYPE = 0
CLASSIFICATION_TYPE = U
NORAD_CAT_ID   = 66912
ELEMENT_SET_NO = 999
REV_AT_EPOCH   = 957
BSTAR          = .71915624E-3
MEAN_MOTION_DOT = .54174E-3
MEAN_MOTION_DDOT = 0

